{
  "type": "FeatureCollection",
  "features": [
    {
      "type": "Feature",
      "properties": {
        "norad_id": 35839,
        "name": "COSMOS 2251 DEB",
        "group": "cosmos-2251-debris",
        "lat": 28.685548789812234,
        "lon": 104.44054037794513,
        "alt_km": 368.57376906177615,
        "timestamp": "2025-12-26T11:25:45.587039+00:00",
        "meta_object_name": "COSMOS 2251 DEB",
        "meta_object_id": "1993-036ATM",
        "meta_epoch": "2025-12-25T05:36:24.372288",
        "meta_mean_motion": 15.62492675,
        "meta_eccentricity": 0.0009075,
        "meta_inclination": 74.2047,
        "meta_ra_of_asc_node": 296.1018,
        "meta_arg_of_pericenter": 139.1266,
        "meta_mean_anomaly": 221.0637,
        "meta_ephemeris_type": 0,
        "meta_classification_type": "U",
        "meta_norad_cat_id": 35839,
        "meta_element_set_no": 999,
        "meta_rev_at_epoch": 88762,
        "meta_bstar": 0.0065592,
        "meta_mean_motion_dot": 0.00631495,
        "meta_mean_motion_ddot": 0,
        "tle_line1": "1 35839U 93036ATM 25359.23361542  .00631495  00000+0  65592-2 0  9995",
        "tle_line2": "2 35839  74.2047 296.1018 0009075 139.1266 221.0637 15.62492675887629"
      },
      "geometry": {
        "type": "Point",
        "coordinates": [
          104.44054037794513,
          28.685548789812234
        ]
      }
    },
    {
      "type": "Feature",
      "properties": {
        "norad_id": 35840,
        "name": "COSMOS 2251 DEB",
        "group": "cosmos-2251-debris",
        "lat": 30.47395175675982,
        "lon": -57.04865978238276,
        "alt_km": 799.5308682616778,
        "timestamp": "2025-12-26T11:25:45.587048+00:00",
        "meta_object_name": "COSMOS 2251 DEB",
        "meta_object_id": "1993-036ATN",
        "meta_epoch": "2025-12-24T15:20:22.552224",
        "meta_mean_motion": 14.37934455,
        "meta_eccentricity": 0.01160056,
        "meta_inclination": 73.9312,
        "meta_ra_of_asc_node": 136.1205,
        "meta_arg_of_pericenter": 35.3241,
        "meta_mean_anomaly": 325.5527,
        "meta_ephemeris_type": 0,
        "meta_classification_type": "U",
        "meta_norad_cat_id": 35840,
        "meta_element_set_no": 999,
        "meta_rev_at_epoch": 85462,
        "meta_bstar": 0.001538727,
        "meta_mean_motion_dot": 5e-05,
        "meta_mean_motion_ddot": 0,
        "tle_line1": "1 35840U 93036ATN 25358.63914991  .00005000  00000+0  15387-2 0  9996",
        "tle_line2": "2 35840  73.9312 136.1205 0116005  35.3241 325.5527 14.37934455854625"
      },
      "geometry": {
        "type": "Point",
        "coordinates": [
          -57.04865978238276,
          30.47395175675982
        ]
      }
    },
    {
      "type": "Feature",
      "properties": {
        "norad_id": 35883,
        "name": "COSMOS 2251 DEB",
        "group": "cosmos-2251-debris",
        "lat": 51.61073497001215,
        "lon": 65.38317653864169,
        "alt_km": 743.5083567763049,
        "timestamp": "2025-12-26T11:25:45.587057+00:00",
        "meta_object_name": "COSMOS 2251 DEB",
        "meta_object_id": "1993-036ATW",
        "meta_epoch": "2025-12-23T21:05:13.714080",
        "meta_mean_motion": 14.50630693,
        "meta_eccentricity": 0.0083107,
        "meta_inclination": 74.0242,
        "meta_ra_of_asc_node": 49.0707,
        "meta_arg_of_pericenter": 175.772,
        "meta_mean_anomaly": 359.9485,
        "meta_ephemeris_type": 0,
        "meta_classification_type": "U",
        "meta_norad_cat_id": 35883,
        "meta_element_set_no": 999,
        "meta_rev_at_epoch": 62547,
        "meta_bstar": 0.00025575,
        "meta_mean_motion_dot": 1.02e-05,
        "meta_mean_motion_ddot": 0,
        "tle_line1": "1 35883U 93036ATW 25357.87863095  .00001020  00000+0  25575-3 0  9995",
        "tle_line2": "2 35883  74.0242  49.0707 0083107 175.7720 359.9485 14.50630693625477"
      },
      "geometry": {
        "type": "Point",
        "coordinates": [
          65.38317653864169,
          51.61073497001215
        ]
      }
    },
    {
      "type": "Feature",
      "properties": {
        "norad_id": 35884,
        "name": "COSMOS 2251 DEB",
        "group": "cosmos-2251-debris",
        "lat": -15.597462144406428,
        "lon": -53.45907380938313,
        "alt_km": 837.0776089245674,
        "timestamp": "2025-12-26T11:25:45.587065+00:00",
        "meta_object_name": "COSMOS 2251 DEB",
        "meta_object_id": "1993-036ATX",
        "meta_epoch": "2025-12-23T04:21:24.693984",
        "meta_mean_motion": 14.25720371,
        "meta_eccentricity": 0.01085787,
        "meta_inclination": 73.9917,
        "meta_ra_of_asc_node": 317.1007,
        "meta_arg_of_pericenter": 101.1734,
        "meta_mean_anomaly": 260.1642,
        "meta_ephemeris_type": 0,
        "meta_classification_type": "U",
        "meta_norad_cat_id": 35884,
        "meta_element_set_no": 999,
        "meta_rev_at_epoch": 22506,
        "meta_bstar": 0.0013065465,
        "meta_mean_motion_dot": 3.275e-05,
        "meta_mean_motion_ddot": 0,
        "tle_line1": "1 35884U 93036ATX 25357.18153581  .00003275  00000+0  13065-2 0  9996",
        "tle_line2": "2 35884  73.9917 317.1007 0108578 101.1734 260.1642 14.25720371225069"
      },
      "geometry": {
        "type": "Point",
        "coordinates": [
          -53.45907380938313,
          -15.597462144406428
        ]
      }
    },
    {
      "type": "Feature",
      "properties": {
        "norad_id": 35885,
        "name": "COSMOS 2251 DEB",
        "group": "cosmos-2251-debris",
        "lat": -0.18767071832805463,
        "lon": -90.55019654497046,
        "alt_km": 752.6282048218127,
        "timestamp": "2025-12-26T11:25:45.587074+00:00",
        "meta_object_name": "COSMOS 2251 DEB",
        "meta_object_id": "1993-036ATY",
        "meta_epoch": "2025-12-26T03:04:45.546816",
        "meta_mean_motion": 14.37544343,
        "meta_eccentricity": 0.0023864,
        "meta_inclination": 74.0284,
        "meta_ra_of_asc_node": 270.1439,
        "meta_arg_of_pericenter": 347.831,
        "meta_mean_anomaly": 12.2264,
        "meta_ephemeris_type": 0,
        "meta_classification_type": "U",
        "meta_norad_cat_id": 35885,
        "meta_element_set_no": 999,
        "meta_rev_at_epoch": 65208,
        "meta_bstar": 0.00028033,
        "meta_mean_motion_dot": 8.16e-06,
        "meta_mean_motion_ddot": 0,
        "tle_line1": "1 35885U 93036ATY 25360.12830494  .00000816  00000+0  28033-3 0  9990",
        "tle_line2": "2 35885  74.0284 270.1439 0023864 347.8310  12.2264 14.37544343652087"
      },
      "geometry": {
        "type": "Point",
        "coordinates": [
          -90.55019654497046,
          -0.18767071832805463
        ]
      }
    },
    {
      "type": "Feature",
      "properties": {
        "norad_id": 35888,
        "name": "COSMOS 2251 DEB",
        "group": "cosmos-2251-debris",
        "lat": -72.17019132794891,
        "lon": -146.59495265151955,
        "alt_km": 737.9316873156404,
        "timestamp": "2025-12-26T11:25:45.587083+00:00",
        "meta_object_name": "COSMOS 2251 DEB",
        "meta_object_id": "1993-036AUB",
        "meta_epoch": "2025-12-24T15:25:47.112960",
        "meta_mean_motion": 14.58358709,
        "meta_eccentricity": 0.00479961,
        "meta_inclination": 74.034,
        "meta_ra_of_asc_node": 334.0069,
        "meta_arg_of_pericenter": 102.564,
        "meta_mean_anomaly": 258.0899,
        "meta_ephemeris_type": 0,
        "meta_classification_type": "U",
        "meta_norad_cat_id": 35888,
        "meta_element_set_no": 999,
        "meta_rev_at_epoch": 86447,
        "meta_bstar": 0.00043220593,
        "meta_mean_motion_dot": 2.004e-05,
        "meta_mean_motion_ddot": 0,
        "tle_line1": "1 35888U 93036AUB 25358.64290640  .00002004  00000+0  43221-3 0  9997",
        "tle_line2": "2 35888  74.0340 334.0069 0047996 102.5640 258.0899 14.58358709864470"
      },
      "geometry": {
        "type": "Point",
        "coordinates": [
          -146.59495265151955,
          -72.17019132794891
        ]
      }
    },
    {
      "type": "Feature",
      "properties": {
        "norad_id": 35890,
        "name": "COSMOS 2251 DEB",
        "group": "cosmos-2251-debris",
        "lat": -73.30269431968814,
        "lon": 110.2956137311054,
        "alt_km": 696.4851215562148,
        "timestamp": "2025-12-26T11:25:45.587092+00:00",
        "meta_object_name": "COSMOS 2251 DEB",
        "meta_object_id": "1993-036AUD",
        "meta_epoch": "2025-12-21T00:05:00.914784",
        "meta_mean_motion": 14.57585084,
        "meta_eccentricity": 0.00541447,
        "meta_inclination": 73.9362,
        "meta_ra_of_asc_node": 226.8978,
        "meta_arg_of_pericenter": 350.2956,
        "meta_mean_anomaly": 9.7156,
        "meta_ephemeris_type": 0,
        "meta_classification_type": "U",
        "meta_norad_cat_id": 35890,
        "meta_element_set_no": 999,
        "meta_rev_at_epoch": 65271,
        "meta_bstar": 0.0010880234,
        "meta_mean_motion_dot": 5.027e-05,
        "meta_mean_motion_ddot": 0,
        "tle_line1": "1 35890U 93036AUD 25355.00348281  .00005027  00000+0  10880-2 0  9994",
        "tle_line2": "2 35890  73.9362 226.8978 0054144 350.2956   9.7156 14.57585084652713"
      },
      "geometry": {
        "type": "Point",
        "coordinates": [
          110.2956137311054,
          -73.30269431968814
        ]
      }
    }
  ]
}